ORBCOMM FM06            
1 25118U 97084G   26178.55611385  .00001167  00000+0  35298-3 0  9997
2 25118  45.0146   2.7950 0000114  43.3000 339.5892 14.47586954495895
ORBCOMM FM04            
1 25159U 98007C   26178.91516038  .00000759  00000+0  30518-3 0  9993
2 25159 107.9626 191.4992 0041638 306.3445  53.3855 14.35759309478135
ORBCOMM FM19            
1 25415U 98046C   26178.79017797  .00000670  00000+0  25810-3 0  9996
2 25415  44.9920 193.1604 0004298 326.1438 203.3119 14.39510941458307
ORBCOMM FM20            
1 25416U 98046D   26178.78082147  .00000469  00000+0  19984-3 0  9998
2 25416  44.9921 201.2447 0002472 285.6309  74.4267 14.38077719458315
ORBCOMM FM27            
1 25481U 98053G   26178.60022914  .00000795  00000+0  30000-3 0  9999
2 25481  45.0058 285.8955 0001916 232.3669 127.7006 14.39159653451733
ORBCOMM FM32            
1 25982U 99065C   26178.85678553  .00000649  00000+0  26372-3 0  9997
2 25982  45.0142 122.7352 0004302  98.2059 261.9277 14.37143857388622
ORBCOMM FM109           
1 40086U 14040A   26178.91929737  .00000457  00000+0  13300-3 0  9993
2 40086  47.0041  40.7460 0001962 274.8010  85.2652 14.58856772635912
ORBCOMM FM110           
1 41182U 15081D   26178.71917861  .00000613  00000+0  16583-3 0  9990
2 41182  47.0030 311.6447 0002661 138.9020 221.2067 14.58895159559167
ORBCOMM FM118           
1 41183U 15081E   26178.89043669  .00000408  00000+0  12255-3 0  9990
2 41183  47.0052 311.1683 0002284  90.3568 269.7580 14.58888574559292
ORBCOMM FM112           
1 41184U 15081F   26178.82630608  .00000334  00000+0  10678-3 0  9994
2 41184  46.9973 219.9372 0004114 259.8052 100.2370 14.58915048560506
ORBCOMM FM113           
1 41185U 15081G   26178.80327890  .00000274  00000+0  94269-4 0  9991
2 41185  46.9990 220.4276 0002607 261.1649  98.8941 14.58867141560482
ORBCOMM FM108           
1 41187U 15081J   26178.90253316  .00000543  00000+0  15099-3 0  9997
2 41187  47.0045 131.5346 0003192 261.4378  98.6146 14.58886469561647
ORBCOMM FM117           
1 41188U 15081K   26178.59417581  .00000326  00000+0  10514-3 0  9995
2 41188  47.0002 131.6232 0003637 263.9854  96.0617 14.58872894561648
ORBCOMM FM116           
1 41189U 15081L   26178.84842089  .00000352  00000+0  11050-3 0  9994
2 41189  47.0006 220.2119 0000752 167.3785 192.7120 14.58894371560496
