OBJECT_NAME,OBJECT_ID,EPOCH,MEAN_MOTION,ECCENTRICITY,INCLINATION,RA_OF_ASC_NODE,ARG_OF_PERICENTER,MEAN_ANOMALY,EPHEMERIS_TYPE,CLASSIFICATION_TYPE,NORAD_CAT_ID,ELEMENT_SET_NO,REV_AT_EPOCH,BSTAR,MEAN_MOTION_DOT,MEAN_MOTION_DDOT
ORBCOMM FM06,1997-084G,2026-06-27T13:20:48.236640,14.47586954,.00001146,45.0146,2.7950,43.3000,339.5892,0,U,25118,999,49589,.35298119E-3,.1167E-4,0
ORBCOMM FM04,1998-007C,2026-06-27T21:57:49.856832,14.35759309,.00416383,107.9626,191.4992,306.3445,53.3855,0,U,25159,999,47813,.30518229E-3,.759E-5,0
ORBCOMM FM19,1998-046C,2026-06-27T18:57:51.376608,14.39510941,.0004298,44.9920,193.1604,326.1438,203.3119,0,U,25415,999,45830,.25810183E-3,.67E-5,0
ORBCOMM FM20,1998-046D,2026-06-27T18:44:22.975008,14.38077719,.00024722,44.9921,201.2447,285.6309,74.4267,0,U,25416,999,45831,.19983788E-3,.469E-5,0
ORBCOMM FM27,1998-053G,2026-06-27T14:24:19.797696,14.39159653,.00019163,45.0058,285.8955,232.3669,127.7006,0,U,25481,999,45173,.30000308E-3,.795E-5,0
ORBCOMM FM32,1999-065C,2026-06-27T20:33:46.269792,14.37143857,.00043028,45.0142,122.7352,98.2059,261.9277,0,U,25982,999,38862,.26371897E-3,.649E-5,0
ORBCOMM FM109,2014-040A,2026-06-27T22:03:47.292768,14.58856772,.00019622,47.0041,40.7460,274.8010,85.2652,0,U,40086,999,63591,.13300325E-3,.457E-5,0
ORBCOMM FM110,2015-081D,2026-06-27T17:15:37.031904,14.58895159,.0002661,47.0030,311.6447,138.9020,221.2067,0,U,41182,999,55916,.16583118E-3,.613E-5,0
ORBCOMM FM118,2015-081E,2026-06-27T21:22:13.730016,14.58888574,.00022844,47.0052,311.1683,90.3568,269.7580,0,U,41183,999,55929,.12254534E-3,.408E-5,0
ORBCOMM FM112,2015-081F,2026-06-27T19:49:52.845312,14.58915048,.00041147,46.9973,219.9372,259.8052,100.2370,0,U,41184,999,56050,.10678117E-3,.334E-5,0
ORBCOMM FM113,2015-081G,2026-06-27T19:16:43.296960,14.58867141,.00026073,46.9990,220.4276,261.1649,98.8941,0,U,41185,999,56048,.94269106E-4,.274E-5,0
ORBCOMM FM108,2015-081J,2026-06-27T21:39:38.865024,14.58886469,.00031929,47.0045,131.5346,261.4378,98.6146,0,U,41187,999,56164,.15099046E-3,.543E-5,0
ORBCOMM FM117,2015-081K,2026-06-27T14:15:36.789984,14.58872894,.00036379,47.0002,131.6232,263.9854,96.0617,0,U,41188,999,56164,.1051417E-3,.326E-5,0
ORBCOMM FM116,2015-081L,2026-06-27T20:21:43.564896,14.58894371,.00007522,47.0006,220.2119,167.3785,192.7120,0,U,41189,999,56049,.11050079E-3,.352E-5,0
